[{"OBJECT_NAME":"TIANQI-21","OBJECT_ID":"2023-135A","EPOCH":"2026-03-09T21:46:55.834752","MEAN_MOTION":14.23085423,"ECCENTRICITY":0.00130966,"INCLINATION":49.9714,"RA_OF_ASC_NODE":210.0306,"ARG_OF_PERICENTER":269.1153,"MEAN_ANOMALY":90.8259,"EPHEMERIS_TYPE":0,"CLASSIFICATION_TYPE":"U","NORAD_CAT_ID":57792,"ELEMENT_SET_NO":999,"REV_AT_EPOCH":13049,"BSTAR":0.00019098246,"MEAN_MOTION_DOT":2.75e-6,"MEAN_MOTION_DDOT":0},{"OBJECT_NAME":"COBE DEB","OBJECT_ID":"1989-089C","EPOCH":"2026-03-09T11:49:20.601120","MEAN_MOTION":14.20685001,"ECCENTRICITY":0.00129104,"INCLINATION":98.7014,"RA_OF_ASC_NODE":80.2265,"ARG_OF_PERICENTER":71.1083,"MEAN_ANOMALY":82.7947,"EPHEMERIS_TYPE":0,"CLASSIFICATION_TYPE":"U","NORAD_CAT_ID":20324,"ELEMENT_SET_NO":999,"REV_AT_EPOCH":87137,"BSTAR":0.00048708811,"MEAN_MOTION_DOT":1.007e-5,"MEAN_MOTION_DDOT":0}]
